NORAD_CAT_ID,OBJECT_NAME,OBJECT_TYPE,EPOCH,MEAN_MOTION,ECCENTRICITY,INCLINATION,RA_OF_ASC_NODE,ARG_OF_PERICENTER,MEAN_ANOMALY,BSTAR,MEAN_MOTION_DOT,MEAN_MOTION_DDOT,TLE_LINE0,TLE_LINE1,TLE_LINE2,SEMIMAJOR_AXIS,PERIOD,APOGEE,PERIGEE,DECAYED
52991.0,STARLINK-4285,PAYLOAD,2024-04-01 05:30:52,15.08848289,0.0001491,53.2198,40.0297,101.1526,258.9634,0.00010144,1.327e-05,0.0,0 STARLINK-4285,1 52991U 22076F   24092.22977928  .00001327  00000-0  10144-3 0  9992,2 52991  53.2198  40.0297 0001491 101.1526 258.9634 15.08848289 95902,6917.855,95.437,540.752,538.689,0.0
52991.0,STARLINK-4285,PAYLOAD,2024-04-02 05:21:40,15.08831203,0.0001368,53.2189,35.5672,96.5052,263.6095,6.4001e-05,7.31e-06,0.0,0 STARLINK-4285,1 52991U 22076F   24093.22339095  .00000731  00000-0  64001-4 0  9990,2 52991  53.2189  35.5672 0001368  96.5052 263.6095 15.08831203 96523,6917.907,95.438,540.719,538.826,0.0
52991.0,STARLINK-4285,PAYLOAD,2024-04-02 13:18:36,15.08843361,0.0001283,53.2191,34.0815,82.5014,277.6124,5.6588e-05,6.13e-06,0.0,0 STARLINK-4285,1 52991U 22076F   24093.55458358  .00000613  00000-0  56588-4 0  9990,2 52991  53.2191  34.0815 0001283  82.5014 277.6124 15.08843361 96579,6917.87,95.437,540.623,538.848,0.0
52991.0,STARLINK-4285,PAYLOAD,2024-04-03 05:12:27,15.08839636,0.0001371,53.2187,31.1075,88.2447,271.8703,-3.489e-05,-8.43e-06,0.0,0 STARLINK-4285,1 52991U 22076F   24094.21699046 -.00000843  00000-0 -34890-4 0  9994,2 52991  53.2187  31.1075 0001371  88.2447 271.8703 15.08839636 96671,6917.882,95.438,540.695,538.798,0.0
52991.0,STARLINK-4285,PAYLOAD,2024-04-03 13:09:22,15.08850347,0.0001434,53.2197,29.6219,89.7227,270.3929,0.00011223,1.499e-05,0.0,0 STARLINK-4285,1 52991U 22076F   24094.54817848  .00001499  00000-0  11223-3 0  9992,2 52991  53.2197  29.6219 0001434  89.7227 270.3929 15.08850347 96728,6917.849,95.437,540.706,538.722,0.0
52991.0,STARLINK-4285,PAYLOAD,2024-04-04 05:03:13,15.08843181,6.79e-05,53.2195,26.6485,75.3742,284.7325,0.00011751,1.583e-05,0.0,0 STARLINK-4285,1 52991U 22076F   24095.21057783  .00001583  00000-0  11751-3 0  9991,2 52991  53.2195  26.6485 0000679  75.3742 284.7325 15.08843181 96829,6917.871,95.437,540.205,539.266,0.0
52991.0,STARLINK-4285,PAYLOAD,2024-04-04 13:00:10,15.08832354,0.0001161,53.22,25.1598,88.4507,271.6618,-3.0326e-05,-7.7e-06,0.0,0 STARLINK-4285,1 52991U 22076F   24095.54179042 -.00000770  00000-0 -30326-4 0  9999,2 52991  53.2200  25.1598 0001161  88.4507 271.6618 15.08832354 96871,6917.904,95.438,540.572,538.966,0.0
52991.0,STARLINK-4285,PAYLOAD,2024-04-04 22:32:30,15.08824539,0.0001161,53.2202,23.3794,61.5798,298.5312,1.6696e-05,-2.2e-07,0.0,0 STARLINK-4285,1 52991U 22076F   24095.93923623 -.00000022  00000-0  16696-4 0  9997,2 52991  53.2202  23.3794 0001161  61.5798 298.5312 15.08824539 96465,6917.928,95.439,540.596,538.989,0.0
52991.0,STARLINK-4285,PAYLOAD,2024-04-05 04:54:01,15.08843159,0.0001279,53.2191,22.1858,90.993,269.1209,5.7927e-05,6.34e-06,0.0,0 STARLINK-4285,1 52991U 22076F   24096.20418296  .00000634  00000-0  57927-4 0  9993,2 52991  53.2191  22.1858 0001279  90.9930 269.1209 15.08843159 96978,6917.871,95.437,540.621,538.851,0.0
52991.0,STARLINK-4285,PAYLOAD,2024-04-05 19:12:30,15.08838544,0.0001202,53.2202,19.5102,94.1894,265.9236,-7.5637e-05,-1.491e-05,0.0,0 STARLINK-4285,1 52991U 22076F   24096.80035057 -.00001491  00000-0 -75637-4 0  9991,2 52991  53.2202  19.5102 0001202  94.1894 265.9236 15.08838544 97061,6917.885,95.438,540.581,538.918,0.0
52991.0,STARLINK-4285,PAYLOAD,2024-04-06 01:34:03,15.08827692,0.0001043,53.2207,18.3216,82.9691,277.142,-0.00015421,-2.74e-05,0.0,0 STARLINK-4285,1 52991U 22076F   24097.06532150 -.00002740  00000-0 -15421-3 0  9998,2 52991  53.2207  18.3216 0001043  82.9691 277.1420 15.08827692 97109,6917.918,95.438,540.505,539.061,0.0
52991.0,STARLINK-4285,PAYLOAD,2024-04-06 11:06:22,15.08822494,0.0001141,53.2207,16.5379,85.5992,274.513,1.2223e-05,-9.3e-07,0.0,0 STARLINK-4285,1 52991U 22076F   24097.46276300 -.00000093  00000-0  12223-4 0  9990,2 52991  53.2207  16.5379 0001141  85.5992 274.5130 15.08822494 96698,6917.934,95.439,540.588,539.01,0.0
52991.0,STARLINK-4285,PAYLOAD,2024-04-06 19:03:18,15.08829219,0.0001044,53.2192,15.0479,92.714,267.3972,4.2239e-05,3.84e-06,0.0,0 STARLINK-4285,1 52991U 22076F   24097.79396042  .00000384  00000-0  42239-4 0  9994,2 52991  53.2192  15.0479 0001044  92.7140 267.3972 15.08829219 97218,6917.913,95.438,540.501,539.056,0.0
52991.0,STARLINK-4285,PAYLOAD,2024-04-06 22:14:04,15.08833886,0.0001115,53.2195,14.4542,90.2448,269.8672,6.0194e-05,6.7e-06,0.0,0 STARLINK-4285,1 52991U 22076F   24097.92643785  .00000670  00000-0  60194-4 0  9996,2 52991  53.2195  14.4542 0001115  90.2448 269.8672 15.08833886 96766,6917.899,95.438,540.535,538.993,0.0
52991.0,STARLINK-4285,PAYLOAD,2024-04-07 10:57:08,15.08854048,0.000114,53.2197,12.0768,87.9555,272.1567,0.00016592,2.355e-05,0.0,0 STARLINK-4285,1 52991U 22076F   24098.45634265  .00002355  00000-0  16592-3 0  9992,2 52991  53.2197  12.0768 0001140  87.9555 272.1567 15.08854048 96844,6917.837,95.437,540.491,538.914,0.0
52991.0,STARLINK-4285,PAYLOAD,2024-04-07 22:04:51,15.08825743,0.0001222,53.2192,9.9959,90.9114,269.2018,0.00015221,2.134e-05,0.0,0 STARLINK-4285,1 52991U 22076F   24098.92004294  .00002134  00000-0  15221-3 0  9990,2 52991  53.2192   9.9959 0001222  90.9114 269.2018 15.08825743 96918,6917.924,95.438,540.634,538.944,0.0
52991.0,STARLINK-4285,PAYLOAD,2024-04-08 01:15:37,15.08830022,0.0001222,53.2191,9.4019,97.1426,262.9705,0.00020108,2.913e-05,0.0,0 STARLINK-4285,1 52991U 22076F   24099.05252169  .00002913  00000-0  20108-3 0  9996,2 52991  53.2191   9.4019 0001222  97.1426 262.9705 15.08830022 97408,6917.911,95.438,540.621,538.931,0.0
52991.0,STARLINK-4285,PAYLOAD,2024-04-08 10:47:55,15.08847896,0.0001305,53.2199,7.617,92.616,267.4982,0.00028016,4.175e-05,0.0,0 STARLINK-4285,1 52991U 22076F   24099.44995136  .00004175  00000-0  28016-3 0  9995,2 52991  53.2199   7.6170 0001305  92.6160 267.4982 15.08847896 97461,6917.856,95.437,540.624,538.818,0.0
52991.0,STARLINK-4285,PAYLOAD,2024-04-08 23:31:01,15.0884131,0.0001523,53.2207,5.2388,92.4543,267.6624,-4.6551e-05,-1.029e-05,0.0,0 STARLINK-4285,1 52991U 22076F   24099.97987474 -.00001029  00000-0 -46551-4 0  9991,2 52991  53.2207   5.2388 0001523  92.4543 267.6624 15.08841310 97078,6917.876,95.437,540.795,538.688,0.0
52991.0,STARLINK-4285,PAYLOAD,2024-04-09 01:06:24,15.08846674,0.0001352,53.2199,4.9407,90.7315,269.3832,5.8517e-05,6.44e-06,0.0,0 STARLINK-4285,1 52991U 22076F   24100.04611524  .00000644  00000-0  58517-4 0  9997,2 52991  53.2199   4.9407 0001352  90.7315 269.3832 15.08846674 97555,6917.86,95.437,540.66,538.79,0.0
52991.0,STARLINK-4285,PAYLOAD,2024-04-09 10:38:42,15.08855541,0.0001461,53.2193,3.1544,78.1315,281.9841,9.3762e-05,1.205e-05,0.0,0 STARLINK-4285,1 52991U 22076F   24100.44354480  .00001205  00000-0  93762-4 0  9991,2 52991  53.2193   3.1544 0001461  78.1315 281.9841 15.08855541 97613,6917.833,95.437,540.709,538.687,0.0
52991.0,STARLINK-4285,PAYLOAD,2024-04-09 17:00:15,15.08836786,0.0001613,53.2208,1.9681,87.2621,272.8556,3.2907e-05,2.36e-06,0.0,0 STARLINK-4285,1 52991U 22076F   24100.70851518  .00000236  00000-0  32907-4 0  9991,2 52991  53.2208   1.9681 0001613  87.2621 272.8556 15.08836786 97654,6917.89,95.438,540.871,538.639,0.0
52991.0,STARLINK-4285,PAYLOAD,2024-04-09 23:21:48,15.08841333,0.0001728,53.2207,0.7788,85.783,274.336,9.2785e-05,1.189e-05,0.0,0 STARLINK-4285,1 52991U 22076F   24100.97347364  .00001189  00000-0  92785-4 0  9997,2 52991  53.2207   0.7788 0001728  85.7830 274.3360 15.08841333 97227,6917.876,95.437,540.937,538.546,0.0
52991.0,STARLINK-4285,PAYLOAD,2024-04-10 10:29:29,15.08847633,0.0001345,53.2193,358.6967,88.2304,271.8842,0.00016955,2.412e-05,0.0,0 STARLINK-4285,1 52991U 22076F   24101.43714910  .00002412  00000-0  16955-3 0  9998,2 52991  53.2193 358.6967 0001345  88.2304 271.8842 15.08847633 97769,6917.857,95.437,540.653,538.792,0.0
52991.0,STARLINK-4285,PAYLOAD,2024-04-10 21:37:12,15.08839612,0.0001491,53.2194,356.6133,94.0056,266.1106,9.6171e-05,1.243e-05,0.0,0 STARLINK-4285,1 52991U 22076F   24101.90083440  .00001243  00000-0  96171-4 0  9997,2 52991  53.2194 356.6133 0001491  94.0056 266.1106 15.08839612 97830,6917.882,95.438,540.778,538.715,0.0
52991.0,STARLINK-4285,PAYLOAD,2024-04-11 10:20:16,15.08845454,0.0001351,53.2186,354.2329,94.9054,265.2092,6.864e-05,8.05e-06,0.0,0 STARLINK-4285,1 52991U 22076F   24102.43075114  .00000805  00000-0  68640-4 0  9998,2 52991  53.2186 354.2329 0001351  94.9054 265.2092 15.08845454 97446,6917.864,95.437,540.663,538.794,0.0
52991.0,STARLINK-4285,PAYLOAD,2024-04-11 21:27:59,15.08832093,0.0001488,53.2198,352.1526,102.635,257.4809,0.00012397,1.685e-05,0.0,0 STARLINK-4285,1 52991U 22076F   24102.89444028  .00001685  00000-0  12397-3 0  9996,2 52991  53.2198 352.1526 0001488 102.6350 257.4809 15.08832093 97985,6917.905,95.438,540.799,538.74,0.0
52991.0,STARLINK-4285,PAYLOAD,2024-04-12 02:14:09,15.08835969,0.0001548,53.2196,351.2603,97.4589,262.6579,2.9492e-05,1.81e-06,0.0,0 STARLINK-4285,1 52991U 22076F   24103.09316024  .00000181  00000-0  29492-4 0  9998,2 52991  53.2196 351.2603 0001548  97.4589 262.6579 15.08835969 97540,6917.893,95.438,540.829,538.687,0.0
52991.0,STARLINK-4285,PAYLOAD,2024-04-12 22:54:09,15.08844931,0.000144,53.2197,347.3947,98.971,261.1445,8.8113e-05,1.115e-05,0.0,0 STARLINK-4285,1 52991U 22076F   24103.95427429  .00001115  00000-0  88113-4 0  9998,2 52991  53.2197 347.3947 0001440  98.9710 261.1445 15.08844931 97670,6917.865,95.437,540.726,538.734,0.0
52991.0,STARLINK-4285,PAYLOAD,2024-04-13 02:04:55,15.08845232,0.000161,53.2199,346.8001,100.2647,259.8527,0.00012625,1.722e-05,0.0,0 STARLINK-4285,1 52991U 22076F   24104.08675579  .00001722  00000-0  12625-3 0  9992,2 52991  53.2199 346.8001 0001610 100.2647 259.8527 15.08845232 98167,6917.864,95.437,540.843,538.616,0.0
